0 COSMOS 1726
1 16495U 86006A   13282.11587022  .00004294  00000-0  24455-3 0  1980
2 16495 082.4781 332.5354 0016649 198.8043 239.1111 15.12461820511826
0 COSMOS 1726
1 16495U 86006A   13283.16974558  .00004579  00000-0  26082-3 0  1995
2 16495 082.4781 331.4970 0016657 194.9953 217.5073 15.12469766511985
0 COSMOS 1726
1 16495U 86006A   13286.14685505  .00004180  00000-0  23774-3 0  2014
2 16495 082.4789 328.5632 0017216 185.1060 227.2807 15.12491416512439
0 COSMOS 1726
1 16495U 86006A   13287.20732863  .00004631  00000-0  26353-3 0  2020
2 16495 082.4788 327.5183 0017330 181.6841 241.3103 15.12497428512595
0 COSMOS 1726
1 16495U 86006A   13288.47808693  .00006521  00000-0  37152-3 0  2035
2 16495 082.4788 326.2662 0017390 177.3874 320.5321 15.12512826512780
0 COSMOS 1726
1 16495U 86006A   13289.53872887  .00005688  00000-0  32375-3 0  2045
2 16495 082.4787 325.2210 0017486 174.0951 335.4354 15.12523339512943
0 COSMOS 1726
1 16495U 86006A   13291.17833758  .00004592  00000-0  26097-3 0  2050
2 16495 082.4783 323.6051 0017611 169.0298 262.7028 15.12538818513198
0 COSMOS 1726
1 16495U 86006A   13292.51903997  .00004619  00000-0  26238-3 0  2060
2 16495 082.4781 322.2836 0017688 164.7794 002.6747 15.12549172513395
0 COSMOS 1726
1 16495U 86006A   13293.76630382  .00004605  00000-0  26151-3 0  2073
2 16495 082.4780 321.0539 0017698 160.7661 313.9878 15.12558196513581
0 COSMOS 1726
1 16495U 86006A   13295.14551301  .00004553  00000-0  25849-3 0  2086
2 16495 082.4780 319.6941 0017736 156.2707 263.8439 15.12568306513798
